#dP2021  2 14 18  0  0.00000000      96 __u+U ITR00 EXT  IAC
## 2145  64800.00000000   900.00000000 59259 0.7500000000000
+  117   C06C07C08C09C10C11C12C13C14C16C19C20C21C22C23C24C25
+        C26C27C28C29C30C32C33C34C35C36C37C38C39C40C41C42C43
+        C44C45C46E01E02E03E04E05E07E08E09E11E12E13E14E15E18
+        E19E21E24E25E26E27E30E31E33E36G01G02G03G04G05G06G07
+        G08G09G10G11G12G13G14G15G16G17G18G19G20G21G22G23G24
+        G25G26G27G28G29G30G31G32J01J02J03R01R02R03R04R05R07
+        R08R09R11R12R13R14R15R16R17R18R19R20R21R22R24  0  0
++         8 10  9 10  9  9  8 10  8  9  8  9 10  8  9 10  9
++         8  7  9  9  9  8 10  8  9  9  9 10 10 10  9  9  9
++         9 10  9  8  9  9  9  8  9 10  9  9  8 10  8  8 10
++        10  8  8  8 10  9  8  8  7  7  9  8  7  6  7  7  8
++         8  7  9  8  8  8  8  9  9  7  9  9  9  9  7  9  9
++         8  8 10  7  9  8  8  9 10  8  8  9  8 10  8  9  9
++         8  9  8  9  8  8  9  7  7  7 10  8  9  8  9  0  0
%c M  cc GPS ccc cccc cccc cccc cccc ccccc ccccc ccccc ccccc
%c cc cc ccc ccc cccc cccc cccc cccc ccccc ccccc ccccc ccccc
%f  0.0000000  0.000000000  0.00000000000  0.000000000000000
%f  0.0000000  0.000000000  0.00000000000  0.000000000000000
%i    0    0    0    0      0      0      0      0         0
%i    0    0    0    0      0      0      0      0         0
/* IAC                                ULTRA-RAPID PREDICTION
/* S/V CLOCKS ARE ALIGNED TO GNSS TIME                      
/* G:C1WC2W R:C1PC2P E:C1XC5X C:C2IC6I J:C1CC2S             
/* PCV:IGS14_2134 OL/AL:FES2004  NONE     YN ORB:CoN CLK:CoN
*  2021 02 15 15  0  0.00000000
PC06 -21378.651129  23767.077286 -27278.604472     94.272823
PC07 -15889.138660  38060.270706  -7048.563829   -329.204692
PC08  -5478.943382  24168.274978  34306.591801   -913.621944
PC09  -5498.621247  24806.769527 -33431.288114    731.402737
PC10  -6246.369099  41161.869081   5141.645927    -86.050109
PC11  24844.219298  -7303.393208 -10382.532202   -921.709509
PC12  26706.686982   3882.469222   7172.999750    800.133326
PC13   7502.336811  32562.054785  25972.517889    142.693309
PC14  18622.682691 -16132.632167 -13126.758411    142.785687
PC16 -18935.985412  24144.966595 -28936.326567   -697.079383
PC19 -15349.342186  22847.385418   4584.096999    728.941311
PC20 -18895.445461   8202.654825  18830.825304   -915.946598
PC21  11299.999471  12034.073399 -22479.285982   -839.706093
PC22  -2798.462335  24632.944426 -12784.027608   -880.777769
PC23  -6919.748258 -24992.382340  10294.924707   -876.086468
PC24  19131.599925   3653.787720  19981.897776   -761.135243
PC25   7831.975041 -15964.443915  21493.502596   -934.447112
PC26  18985.093869  19046.628282   7514.301321    948.122871
PC27 -21341.033523  -9850.340438 -15073.263649    483.805358
PC28  -2277.798437 -15761.641954 -22909.663569   -109.174136
PC29 -17548.377022  13116.302785  17285.271672    352.805314
PC30 -27780.734464   2553.448178   1116.356209    444.920218
PC32 -11399.048906 -11991.471130  22488.679292   -895.173555
PC33  15252.423636 -22917.261986  -4611.145791   -961.015618
PC34  27680.009996  -2928.954723  -1784.182982   -739.359897
PC35   2441.507411  15776.595147  22886.600889   -416.654192
PC36  -8430.973228  15522.689359 -21586.336846   -755.525954
PC37 -18241.853545 -19988.534851  -6754.081740   -865.388792
PC38  -4794.264688  27015.432440  32076.427682    130.252756
PC39 -16700.231208  25443.717901 -29236.719740     28.495300
PC40 -13409.733555  39823.334520   2429.341754    131.857386
PC41   2871.221865 -24748.474713  12608.549983   -929.997579
PC42  18838.175588  -7554.709992 -19113.003498   -870.412881
PC43  17994.239343 -12939.813790 -16942.409951   -599.141538
PC44  21470.865869   9326.517433  15160.067593     40.150432
PC45   7087.591802  24972.970631 -10277.218296    362.954411
PC46 -18768.159430  -2696.144406 -20461.531013    404.069422
PE01  -3638.229856 -29343.290086  -1234.450969  -1046.733270
PE02   3706.074495  29349.534114   1332.865882    198.615872
PE03  -1806.339665  20129.631008 -21626.755757   -398.951371
PE04 -16889.956391  -7898.337606  22992.819033   -710.406571
PE05 -19737.155401  20732.399995  -7539.154858   -304.335005
PE07  25969.209463  -9238.024821 -10796.979527   -501.221448
PE08  17093.966876   7440.381933 -22994.666695   6046.556781
PE09 -25885.186647   9535.469711  10718.868997   5764.476605
PE11 -26331.109545  -2038.085804  13387.618298   6317.998319
PE12 -24824.780704 -15082.062555  -5745.757418   5354.727216
PE13  26454.454703   2293.270622 -13059.026188    412.118253
PE14   4430.605055 -22167.431478 -23468.953449  -1330.911163
PE15  24877.663272  14969.404685   5755.339293    829.163956
PE18  -2235.681936  15708.480358  17136.146159  -1454.917684
PE19   4217.175485 -20788.098125  20645.929591    204.511458
PE21   8527.527271 -23377.884592  16016.509128   -648.621593
PE24 -16372.527592   2836.820373 -24511.731190   -745.140947
PE25  -8628.237606  23262.822950 -16149.085501   -526.501479
PE26  11874.745811 -12216.216766 -24194.835447   2144.969946
PE27  16208.174597  -3626.013138  24499.863148     29.280977
PE30  13969.494167  18921.852524  17972.982988   3178.928078
PE31 -14309.718367 -18105.695869 -18527.167365   -478.318296
PE33  -8692.034481 -18811.734377 -21128.318447   -465.724338
PE36 -12479.269268  11709.121932  24164.630326    440.251281
PG01 -22311.297328 -14429.687006   2818.960791    760.628798
PG02   7614.279461  19154.576842  17395.934046   -577.139326
PG03 -13215.518885  -9944.862804  20725.569200    -83.759151
PG04 -20145.239276  -4580.087657  16726.093247   -180.407233
PG05   4495.420781  24529.975524  -9023.280762    -33.773706
PG06  -5962.235011  13805.847544  21953.370018     -2.736283
PG07 -21686.165302  -2883.871398 -15058.199475     59.672206
PG08 -14334.497471  -8982.990712 -20542.245561    -10.434254
PG09 -24904.131779   5735.617897   7213.076189   -323.141600
PG10  11651.391328 -19269.246565 -13760.408781    -62.076110
PG11 -21689.950514 -11363.954400 -10285.021668    -23.863242
PG12  10377.828209  15023.161054  19094.886582     -1.493434
PG13   3356.071176  14752.284959 -21963.092382     97.533524
PG14 -13307.850157  17636.457739 -14745.909884     97.012921
PG15  15868.039907   8181.178800 -20115.888472   -169.228141
PG16   -337.498956 -25158.849282  -7957.623806   -280.533718
PG17 -20299.295343  14368.319269   9743.033421    394.648116
PG18  19870.770973    -42.305235 -17656.135233    347.398170
PG19 -14619.877339  15505.931970  15510.305220    -38.138466
PG20  14901.623142  -7739.977542 -20578.177887    524.681887
PG21 -20538.146879 -16483.740454  -4186.185206     95.806774
PG22 -11397.972965 -18296.979703  15822.983606   -678.730401
PG23  14845.145250  -8900.237321 -20156.367823    118.371070
PG24  21387.777683  15932.549313  -2600.834489      2.288380
PG25  15171.595907   -758.126478  21512.238953     81.042939
PG26   4444.874030 -25787.283019   3570.923427     45.293153
PG27   -754.395289 -15583.141777 -21598.818108    -76.846663
PG28 -12341.891448  20183.846294 -11696.712176    615.161915
PG29  25244.059927  -3697.325513   7418.457305   -295.462722
PG30 -14205.183032   8329.589800 -20828.674632   -385.151731
PG31   4117.906321 -15559.147667  20970.342271   -100.256070
PG32  18658.467366 -15979.710350   9973.745935     18.824937
PJ01 -33399.813660  25462.326082   8637.362421   -341.308648
PJ02 -20137.817649  25677.965057 -22194.600047      1.931255
PJ03 -29895.310884  25242.368985  20719.389332     -0.752436
PR01  11864.063902 -21437.809955   7119.552043     75.029333
PR02  -3331.214555 -12496.689440  22014.706260    467.119825
PR03 -14816.458652   3001.794805  20603.010361     30.846959
PR04 -17729.215738  16671.094942   7682.690624     74.120986
PR05 -10908.626164  20986.180375  -9574.436471     66.534740
PR07  15037.073330  -3541.382541 -20247.293527    -42.454909
PR08  17709.292652 -16711.925095  -7511.008208    -57.427522
PR09  11638.716914  22192.219621   4592.959021    -21.619209
PR11   8159.564481  -8248.960040  22723.597979      3.329288
PR12  -2262.785007 -21899.496250  12879.716568    205.218712
PR13 -11485.857670 -22402.049634  -4114.409913    -50.751262
PR14 -13860.087295  -9558.172245 -19159.653149     61.025448
PR15  -8191.588200   8548.920556 -22580.130892    105.381863
PR16   3270.230209  22337.250505 -12034.730038    -11.364790
PR17 -24954.395350  -4696.622335  -2225.392489    400.297586
PR18 -21052.394777   3202.817478  14107.437562     66.728604
PR19  -6902.293869   9078.605657  22822.185269   -132.136118
PR20  14208.079955  10770.633415  18233.482946   -433.450375
PR21  25135.652930   4276.906393   1080.293338   -187.914805
PR22  20229.380594  -3616.765724 -15049.896913    -98.029468
PR24 -14990.609125 -10817.717786 -17550.144563     31.637586
EOF
